P/2010 U1 (Boattini),e,8.2143,280.7155,85.9074,6.511655,0.0593153,0.24807430,236.9072,12/30.0/2020,2000,g  9.5,4.0
# From MPC119994
C/2010 U3 (Boattini),e,55.5220,43.0315,88.0701,2393,0.0000084,0.99647087,0.0000,02/25.8584/2019,2000,g  1.0,4.0
# From MPC 79021
P/2010 UH55 (Spacewatch),e,8.0449,232.9817,225.1851,6.651256,0.0574577,0.56347077,203.8763,12/30.0/2020,2000,g 11.0,4.0
# From MPC 75009
P/2010 WK (LINEAR),e,11.4005,11.3164,40.9860,5.760426,0.0712889,0.68979736,267.2935,12/30.0/2020,2000,g 14.5,2.0
# From MPC 82317
P/2011 A2 (Scotti),e,4.4751,54.6761,94.5286,3.105373,0.1801082,0.49943129,299.3627,12/30.0/2020,2000,g 16.5,4.0
# From MPC 84021
P/2011 C2 (Gibbs),e,10.8850,12.1241,160.9943,7.414072,0.0488224,0.26897627,160.3755,12/30.0/2020,2000,g  9.0,4.0
# From MPC 79866
P/2011 FR143 (Lemmon),e,15.9865,190.9508,350.1255,6.857041,0.0548907,0.45095800,197.0699,12/30.0/2020,2000,g 14.0,2.0
# From MPC 82317
P/2011 JB15 (Spacewatch-Boattini),e,19.1466,153.5929,111.0055,7.354711,0.0494146,0.31797523,161.2434,12/30.0/2020,2000,g  9.0,4.0
# From MPEC 2020-AA5
C/2011 KP36 (Spacewatch),e,18.9845,173.2946,180.6646,38.90343,0.0040618,0.87456685,6.8127,12/30.0/2020,2000,g  4.5,4.0
# From MPC 87913
P/2011 N1 (ASH),e,35.7153,77.6011,330.3371,6.249945,0.0630797,0.54373015,198.5273,12/30.0/2020,2000,g 11.5,4.0
# From MPC 75714
P/2011 NO1 (Elenin),e,15.2488,295.7924,263.8218,5.523592,0.0759227,0.77483868,275.5747,12/30.0/2020,2000,g 15.0,4.0
# From MPC 82318
P/2011 P1 (McNaught),e,5.6583,4.2391,348.9005,7.468190,0.0482927,0.32706338,184.3008,12/30.0/2020,2000,g  9.0,4.0
# From MPC 77806
P/2011 Q3 (McNaught),e,6.0569,32.0252,310.9784,4.970375,0.0889448,0.53258548,306.8573,12/30.0/2020,2000,g 13.5,4.0
# From MPC 98558
P/2011 S1 (Gibbs),e,2.6840,218.8980,192.4911,8.587495,0.0391656,0.20025288,91.3620,12/30.0/2020,2000,g  8.0,4.0
# From MPC 79022
P/2011 UA134 (Spacewatch-PANSTARRS),e,10.4423,40.4167,32.4506,5.604513,0.0742843,0.62929181,247.7189,12/30.0/2020,2000,g 17.5,4.0
# From MPC 77406
P/2011 V1 (Boattini),e,7.3767,46.8445,269.2566,3.854939,0.1302200,0.55062165,106.7589,12/30.0/2020,2000,g 15.5,4.0
# From MPC 82718
P/2011 W1 (PANSTARRS),e,3.7187,161.7906,282.7391,4.660305,0.0979676,0.28711212,320.3494,12/30.0/2020,2000,g 11.5,4.0
# From MPC 79342
P/2011 Y2 (Boattini),e,6.3714,309.3686,131.9261,6.239729,0.0632347,0.70928399,203.6954,12/30.0/2020,2000,g 15.0,4.0
# From MPC 94669
P/2012 B1 (PANSTARRS),e,7.6148,36.2036,162.5771,6.528055,0.0590920,0.40968603,160.7465,12/30.0/2020,2000,g  9.0,4.0
# From MPC 78590
P/2012 C3 (PANSTARRS),e,9.0920,135.3677,344.9542,9.748681,0.0323806,0.63011148,359.9758,10/06.0/2011,2000,g 13.0,4.0
# From MPC 84931
P/2012 F2 (PANSTARRS),e,14.7232,227.0530,33.2646,6.329027,0.0619011,0.54265536,174.4252,12/30.0/2020,2000,g 12.0,4.0
# From MPC 79344
P/2012 G1 (PANSTARRS),e,11.6925,282.5440,286.1149,4.172871,0.1156250,0.38072240,359.9500,06/01.0/2012,2000,g 15.0,4.0
# From MPC 80898
P/2012 K3 (Gibbs),e,13.1946,125.8086,172.1568,3.624954,0.1428073,0.42344743,71.4742,12/30.0/2020,2000,g 15.0,4.0
# From MPC 88326
P/2012 NJ (La Sagra),e,84.6603,315.5466,338.3333,8.459563,0.0400573,0.84732665,125.0519,12/30.0/2020,2000,g 14.5,4.0
# From MPC 81470
P/2012 O1 (McNaught),e,7.4324,91.9817,238.2233,3.540287,0.1479607,0.59455783,98.9168,12/30.0/2020,2000,g 17.5,4.0
# From MPC 80899
P/2012 O2 (McNaught),e,24.4864,120.6789,183.4114,3.623244,0.1429084,0.53278821,86.2983,12/30.0/2020,2000,g 17.0,4.0
# From MPC 82720
P/2012 O3 (McNaught),e,16.6150,336.4109,344.7137,4.574535,0.1007358,0.64696373,308.0447,12/30.0/2020,2000,g 16.5,4.0
# From MPC 82720
P/2012 S2 (La Sagra),e,8.6869,51.1922,312.4957,4.411851,0.1063587,0.69121994,327.4774,12/30.0/2020,2000,g 17.0,4.0
# From MPC 82320
P/2012 T2 (PANSTARRS),e,12.5568,73.7275,310.4306,5.736959,0.0717268,0.16090263,201.6355,12/30.0/2020,2000,g 10.0,4.0
# From MPC 80900
P/2012 T3 (PANSTARRS),e,9.5683,114.4070,195.4514,6.152192,0.0645891,0.61723144,204.3645,12/30.0/2020,2000,g 15.0,4.0
# From MPC 87914
P/2012 TK8 (Tenagra),e,6.3403,288.9669,127.9643,4.127879,0.1175205,0.27425187,324.7599,12/30.0/2020,2000,g 13.0,4.0
# From MPC 82720
P/2012 U2 (PANSTARRS),e,10.7508,185.2805,228.3031,7.141687,0.0516420,0.49798468,153.5711,12/30.0/2020,2000,g 12.5,4.0
# From MPC 84024
P/2012 US27 (Siding Spring),e,39.3336,49.1732,0.8134,5.166379,0.0839314,0.64747093,243.1416,12/30.0/2020,2000,g 13.5,4.0
# From MPC 82721
P/2012 WA34 (Lemmon-PANSTARRS),e,6.1086,94.3798,353.4993,4.755014,0.0950553,0.34403441,273.2374,12/30.0/2020,2000,g 13.5,4.0
# From MPC 84024
P/2013 A2 (Scotti),e,3.3613,355.8117,134.5365,4.014079,0.1225534,0.45442615,354.1457,12/30.0/2020,2000,g 15.5,4.0
# From MPC 82721
P/2013 AL76 (Catalina),e,144.8255,145.9664,27.1138,6.497594,0.0595080,0.68611444,175.0859,12/30.0/2020,2000,g 16.0,4.0
# From MPC 88695
P/2013 EW90 (Tenagra),e,31.7891,160.2946,346.3282,4.116424,0.1180114,0.19491383,354.3758,12/30.0/2020,2000,g 12.0,4.0
# From MPC 91612
P/2013 G1 (Kowalski),e,5.4670,221.4011,51.3974,6.888010,0.0545209,0.51308414,140.3098,12/30.0/2020,2000,g 11.0,4.0
# From MPC 84025
P/2013 G4 (PANSTARRS),e,5.9162,339.6416,214.7041,4.439565,0.1053643,0.40958942,303.4717,12/30.0/2020,2000,g 15.0,4.0
# From MPC 91613
P/2013 J2 (McNaught),e,15.5341,289.4249,37.7329,6.223244,0.0634861,0.65753774,170.2336,12/30.0/2020,2000,g 13.0,4.0
# From MPC 86229
P/2013 N3 (PANSTARRS),e,2.1733,17.4876,323.8628,7.390968,0.0490515,0.59311700,123.1100,12/30.0/2020,2000,g 13.0,4.0
# From MPC 85834
P/2013 N5 (PANSTARRS),e,23.4240,187.1654,176.8872,6.799213,0.0555925,0.73187246,152.1965,12/30.0/2020,2000,g 17.0,4.0
# From MPC 85834
P/2013 P1 (PANSTARRS),e,18.7210,160.6149,138.1075,8.569059,0.0392920,0.60606121,112.3779,12/30.0/2020,2000,g 12.0,4.0
# From MPC 94671
P/2013 R3 (Catalina-PANSTARRS),e,0.8654,342.0005,11.1599,3.033934,0.1865069,0.27509535,140.6668,12/30.0/2020,2000,g 14.0,4.0
# From unp
P/2013 R3-A (Catalina-PANSTARRS),e,0.8648,341.9674,11.1989,3.033792,0.1865200,0.27506478,140.6995,12/30.0/2020,2000,g  9.0,4.0
# From MPEC 2015-M77
P/2013 R3-B (Catalina-PANSTARRS),e,0.8660,342.0232,11.1338,3.034011,0.1864998,0.27511040,140.6493,12/30.0/2020,2000,g  9.0,4.0
# From MPC 85835
P/2013 T1 (PANSTARRS),e,24.2770,10.0875,346.0821,5.861285,0.0694568,0.62365422,188.0523,12/30.0/2020,2000,g 16.5,4.0
# From MPC 86643
P/2013 T2 (Schwartz),e,9.4560,0.8150,345.4872,3.489508,0.1512021,0.50118693,59.7847,12/30.0/2020,2000,g 16.0,4.0
# From MPC 91613
P/2013 W1 (PANSTARRS),e,4.6954,117.8477,1.2922,3.490905,0.1511113,0.59283529,16.7271,12/30.0/2020,2000,g 17.5,4.0
# From MPC111767
C/2013 X1 (PANSTARRS),h,04/19.4390/2016,163.1945,131.5706,165.1748,1.000462,1.323752,2000,10.5,2.0
# From MPC101095
P/2013 YG46 (Spacewatch),e,7.8558,48.8638,242.5040,3.276323,0.1661973,0.45490960,237.5082,12/30.0/2020,2000,g 10.0,4.0
# From MPC 89728
P/2014 A2 (Hill),e,24.5408,106.6292,356.2336,5.926369,0.0683158,0.64543420,179.8665,12/30.0/2020,2000,g 15.0,4.0
# From MPC 92981
P/2014 A3 (PANSTARRS),e,13.6825,230.1644,212.9875,4.628748,0.0989712,0.24700884,277.0183,12/30.0/2020,2000,g 12.0,4.0
# From MPC119994
C/2014 B1 (Schwartz),e,28.4064,161.4136,345.7739,8792,0.0000012,0.99891342,0.0000,09/08.7991/2017,2000,g  4.0,4.0
# From MPC102095
P/2014 C1 (TOTAS),e,2.6862,167.7630,24.0378,3.040264,0.1859247,0.44773961,116.4967,12/30.0/2020,2000,g 15.5,4.0
# From MPC 91614
P/2014 E1 (Larson),e,15.9765,39.0280,186.0292,3.711606,0.1378355,0.42345585,332.1253,12/30.0/2020,2000,g 14.0,4.0
# From MPC 94280
C/2014 F3 (Sheppard-Trujillo),e,6.5882,326.7526,3.2268,15.78579,0.0157146,0.63949598,357.8512,12/30.0/2020,2000,g  6.0,4.0
# From MPC 98560
P/2014 L2 (NEOWISE),e,5.1978,149.3490,182.6462,6.303695,0.0622746,0.64812901,146.7201,12/30.0/2020,2000,g 12.0,4.0
# From MPC 90769
P/2014 L3 (Hill),e,6.2776,115.4703,178.6398,8.167664,0.0422238,0.77386636,100.2169,12/30.0/2020,2000,g 16.0,4.0
# From MPC 91614
P/2014 M4 (PANSTARRS),e,3.3355,263.2684,147.9533,5.874715,0.0692188,0.59398655,152.0812,12/30.0/2020,2000,g 15.0,4.0
# From MPC103844
P/2014 MG4 (Spacewatch-PANSTARRS),e,9.3714,311.7339,299.0962,5.011926,0.0878410,0.25972743,241.7027,12/30.0/2020,2000,g  9.5,4.0
# From MPC 98560
P/2014 O3 (PANSTARRS),e,7.8069,87.6428,204.5901,7.563310,0.0473845,0.38619116,115.8622,12/30.0/2020,2000,g 10.5,4.0
# From MPEC 2020-AA5
C/2014 OE4 (PANSTARRS),h,12/12.8573/2016,81.3159,240.4137,65.8819,1.003039,6.248969,2000,11.0,2.0
# From MPC115880
C/2014 R3 (PANSTARRS),e,90.9204,334.0946,113.4474,12165,0.0000007,0.99940203,0.0000,08/08.8918/2016,2000,g  6.5,4.0
# From MPC 91615
P/2014 R5 (Lemmon-PANSTARRS),e,1.0883,126.5565,213.7235,4.056498,0.1206361,0.41357274,287.9755,12/30.0/2020,2000,g 15.0,4.0
# From MPC104790
C/2014 S2 (PANSTARRS),e,64.5156,8.1524,87.3014,169.7338,0.0004457,0.98774388,0.0000,12/09.0795/2015,2000,g 10.0,4.0
# From MPC 91616
P/2014 U4 (PANSTARRS),e,6.4289,11.8913,347.7359,3.506897,0.1500789,0.46502538,353.1712,12/30.0/2020,2000,g 18.0,4.0
# From MPC 95211
P/2014 V1 (PANSTARRS),e,22.5167,166.2017,177.5681,5.481363,0.0768018,0.53416999,166.4884,12/30.0/2020,2000,g 14.0,4.0
# From MPC 93586
P/2014 W1 (PANSTARRS),e,8.8383,246.2457,152.2467,4.461607,0.1045845,0.38867259,246.4921,12/30.0/2020,2000,g 15.5,4.0
# From MPC110493
C/2014 W2 (PANSTARRS),e,82.0636,69.9837,84.9378,563.9561,0.0000736,0.99525853,0.0000,03/07.9566/2016,2000,g  7.5,4.0
# From MPC105542
P/2014 W4 (PANSTARRS),e,15.2721,33.3549,67.8535,6.599247,0.0581383,0.35205642,106.2136,12/30.0/2020,2000,g 11.0,4.0
# From MPC115880
C/2014 W10 (PANSTARRS),e,82.8816,43.1042,43.6506,812.4566,0.0000426,0.99067775,0.0000,03/04.2959/2016,2000,g  8.0,4.0
# From MPC 93587
P/2014 W12 (Gibbs),e,8.5141,299.2898,36.8982,3.518923,0.1493102,0.52415108,334.4228,12/30.0/2020,2000,g 15.0,4.0
# From MPC 94281
P/2014 X1 (Elenin),e,26.0035,61.5060,33.9776,6.209921,0.0636905,0.70852978,139.4857,12/30.0/2020,2000,g 15.0,4.0
# From MPC100579
C/2014 Y1 (PANSTARRS),h,01/15.9826/2016,14.9075,19.5651,182.3232,1.001406,2.253879,2000,9.5,4.0
